     3.03           N                   I                   RINEX VERSION / TYPE
NAS Convert 1.14.0  NovAtel             20230714 205941 UTC PGM / RUN BY / DATE 
                                                            COMMENT             
                                                            END OF HEADER       
